ONEWEB-0055             
1 45443U 20020V   21331.06169484  .00000375  00000+0  10212-2 0  9994
2 45443  87.8901 351.7191 0001960  87.2378 272.8974 13.11415236 84630
ONEWEB-0093             
1 45444U 20020W   21331.34220499  .00000058  00000+0  12899-3 0  9992
2 45444  87.8898 351.7044 0001999  86.3647 273.7709 13.11420477 84734
ONEWEB-0029             
1 45445U 20020X   21331.36463775  .00000483  00000+0  13278-2 0  9994
2 45445  87.8896 351.6815 0002153  97.5145 262.6227 13.11415261 84713
ONEWEB-0068             
1 45446U 20020Y   21331.48694266 -.00000261  00000+0 -77344-3 0  9990
2 45446  87.8895 351.6738 0002169  84.8381 275.2994 13.11418435 84677
ONEWEB-0046             
1 45447U 20020Z   21331.48357085 -.00000386  00000+0 -11237-2 0  9992
2 45447  87.8895 351.6812 0001762  97.4110 262.7218 13.11418478 84687
ONEWEB-0063             
1 45448U 20020AA  21331.36013403  .00000572  00000+0  15783-2 0  9998
2 45448  87.8889 351.7029 0001653 104.0219 256.1093 13.11420502 84753
ONEWEB-0019             
1 45449U 20020AB  21331.33546282 -.00000193  00000+0 -58025-3 0  9990
2 45449  87.8903 351.6888 0001659  91.0627 269.0691 13.11417503 84593
ONEWEB-0094             
1 45450U 20020AC  21331.31608270  .00000050  00000+0  95437-4 0  9995
2 45450  87.9076 336.4592 0001829  84.0233 276.1107 13.17650608 87320
ONEWEB-0087             
1 45451U 20020AD  21331.06395077  .00000284  00000+0  76668-3 0  9999
2 45451  87.8901 351.7736 0002275  95.6599 264.4789 13.11415222 84605
ONEWEB-0082             
1 45452U 20020AE  21331.06620327  .00000517  00000+0  14229-2 0  9992
2 45452  87.8893 351.7227 0002374  86.3072 273.8328 13.11414185 84693
ONEWEB-0050             
1 45453U 20020AF  21331.38509805  .00000643  00000+0  56226-4 0  9990
2 45453  87.5391 304.4334 0023948 222.7985 137.1381 14.94816601 92081
ONEWEB-0034             
1 45454U 20020AG  21331.31302231 -.00001309  00000+0 -37300-2 0  9990
2 45454  87.8890 351.6970 0002035  97.0011 263.1348 13.11418098 84648
ONEWEB-0060             
1 45455U 20020AH  21331.55088462 -.00000498  00000+0 -14410-2 0  9999
2 45455  87.8892 351.6519 0001835  95.1523 264.9814 13.11418699 84637
ONEWEB-0086             
1 45456U 20020AJ  21331.56882592 -.00000364  00000+0 -10639-2 0  9998
2 45456  87.8894 351.6436 0002075  89.6306 270.5060 13.11419768 84692
ONEWEB-0088             
1 45457U 20020AK  21331.31525229 -.00000510  00000+0 -14739-2 0  9991
2 45457  87.8889 351.7160 0001944  99.5798 260.5550 13.11418491 84595
ONEWEB-0102             
1 47258U 20100A   21331.40161595 -.00000156  00000+0 -46770-3 0  9990
2 47258  87.8850 321.2545 0001961  79.5516 280.5834 13.12442428 46625
ONEWEB-0109             
1 47259U 20100B   21331.41316504  .00000208  00000+0  54142-3 0  9992
2 47259  87.8903 321.1225 0001789  79.7755 280.3575 13.12444401 46458
ONEWEB-0110             
1 47260U 20100C   21331.36003671  .00000376  00000+0  10108-2 0  9995
2 47260  87.8865 321.2054 0001979  74.2373 285.8974 13.12442707 46613
ONEWEB-0111             
1 47261U 20100D   21331.39006104 -.00000356  00000+0 -10243-2 0  9993
2 47261  87.8874 321.2274 0001919  80.6906 279.4439 13.12441936 46455
ONEWEB-0114             
1 47262U 20100E   21331.34617617  .00000402  00000+0  10813-2 0  9999
2 47262  87.8905 321.1010 0001437  72.8805 287.2480 13.12443588 46407
ONEWEB-0117             
1 47263U 20100F   21331.41548190  .00000321  00000+0  85679-3 0  9990
2 47263  87.8818 321.1489 0001895  79.5253 280.6089 13.12444308 46425
ONEWEB-0118             
1 47264U 20100G   21331.36926578  .00000059  00000+0  12977-3 0  9994
2 47264  87.8855 321.2059 0001023 101.9359 258.1884 13.12442907 46618
ONEWEB-0119             
1 47265U 20100H   21331.39699396 -.00000306  00000+0 -88681-3 0  9995
2 47265  87.8850 321.2623 0001861  80.4596 279.6743 13.12443821 46590
ONEWEB-0120             
1 47266U 20100J   21331.42703162  .00000440  00000+0  11883-2 0  9993
2 47266  87.8914 321.2010 0001628  76.6112 283.5198 13.12443445 46628
ONEWEB-0121             
1 47267U 20100K   21331.41084461  .00000092  00000+0  22017-3 0  9992
2 47267  87.8926 321.2623 0002034  83.9072 276.2288 13.12444025 46534
ONEWEB-0122             
1 47268U 20100L   21331.40392716 -.00000053  00000+0 -18177-3 0  9998
2 47268  87.8832 321.1529 0001818  81.3287 278.8047 13.12444996 46442
ONEWEB-0123             
1 47269U 20100M   21331.39928736 -.00000366  00000+0 -10534-2 0  9999
2 47269  87.8858 321.2354 0001728  83.7009 276.4316 13.12444045 46589
ONEWEB-0124             
1 47270U 20100N   21331.38542184 -.00000348  00000+0 -10037-2 0  9997
2 47270  87.8829 321.1646 0002296  88.6801 271.4591 13.12445637 46462
ONEWEB-0125             
1 47271U 20100P   21331.44087878  .00000266  00000+0  70400-3 0  9997
2 47271  87.8899 321.2515 0001507  76.3273 283.8023 13.12440187 46537
ONEWEB-0126             
1 47272U 20100Q   21331.38888429 -.00000422  00000+0 -12089-2 0  9996
2 47272  87.8862 321.2842 0001778  75.6404 284.4922 13.12440329 46598
ONEWEB-0127             
1 47273U 20100R   21331.42933298  .00000468  00000+0  12643-2 0  9991
2 47273  87.8832 321.1673 0001692  85.3724 274.7597 13.12445848 46620
ONEWEB-0128             
1 47274U 20100S   21331.37387857 -.00000112  00000+0 -34743-3 0  9994
2 47274  87.8855 321.1969 0002183  78.3888 281.7485 13.12440487 46632
ONEWEB-0129             
1 47275U 20100T   21331.43165386  .00000465  00000+0  12565-2 0  9999
2 47275  87.8866 321.1249 0000997  11.4686 348.6465 13.12443083 46570
ONEWEB-0130             
1 47276U 20100U   21331.38080614 -.00000255  00000+0 -74349-3 0  9992
2 47276  87.8888 321.2208 0002012  82.9482 277.1875 13.12440882 46539
ONEWEB-0131             
1 47277U 20100V   21331.37849693 -.00000204  00000+0 -60161-3 0  9993
2 47277  87.8887 321.1692 0002009  85.9739 274.1619 13.12440699 46572
ONEWEB-0132             
1 47278U 20100W   21331.40854719 -.00000042  00000+0 -15332-3 0  9993
2 47278  87.8862 321.2651 0001554  76.7378 283.3924 13.12444910 46473
ONEWEB-0133             
1 47279U 20100X   21331.34847529  .00000415  00000+0  11189-2 0  9995
2 47279  87.8875 321.1752 0001754  82.2258 277.9069 13.12444035 46624
ONEWEB-0134             
1 47280U 20100Y   21331.39234916 -.00000421  00000+0 -12057-2 0  9996
2 47280  87.8848 321.1889 0002085  78.1466 281.9896 13.12440788 46602
ONEWEB-0135             
1 47281U 20100Z   21331.36233263  .00000299  00000+0  79685-3 0  9990
2 47281  87.8845 321.1840 0001754  78.3389 281.7937 13.12440846 46626
ONEWEB-0136             
1 47282U 20100AA  21331.38313761 -.00000317  00000+0 -91762-3 0  9998
2 47282  87.8870 321.1493 0002276  59.3435 300.7918 13.12441825 46551
ONEWEB-0137             
1 47283U 20100AB  21331.42009166  .00000416  00000+0  11213-2 0  9995
2 47283  87.8831 321.2385 0001454  81.7401 278.3892 13.12444198 46466
ONEWEB-0138             
1 47284U 20100AC  21331.39468108 -.00000382  00000+0 -10966-2 0  9995
2 47284  87.8840 321.2334 0001798  74.1235 286.0092 13.12440302 46543
ONEWEB-0139             
1 47285U 20100AD  21331.36695190  .00000180  00000+0  46526-3 0  9992
2 47285  87.8888 321.2866 0001975  74.6100 285.5246 13.12442021 46612
ONEWEB-0140             
1 47286U 20100AE  21331.38773626 -.00000374  00000+0 -10756-2 0  9998
2 47286  87.8867 321.2381 0001946  77.2264 282.9082 13.12440442 46580
ONEWEB-0141             
1 47287U 20100AF  21331.37965730 -.00000189  00000+0 -56156-3 0  9996
2 47287  87.8834 321.2289 0001863  80.3534 279.7805 13.12443164 46564
ONEWEB-0142             
1 47288U 20100AG  21331.40045697 -.00000219  00000+0 -64506-3 0  9994
2 47288  87.8869 321.3116 0001531  75.8418 284.2881 13.12444050 46565
ONEWEB-0143             
1 47289U 20100AH  21331.35770606  .00000410  00000+0  11036-2 0  9994
2 47289  87.8887 321.2005 0001792  82.8213 277.3119 13.12445275 46536
ONEWEB-0144             
1 47290U 20100AJ  21331.40621817 -.00000044  00000+0 -15864-3 0  9990
2 47290  87.8914 321.1167 0002013  79.4483 280.6872 13.12444367 46461
ONEWEB-0145             
1 47291U 20100AK  21331.37619149 -.00000172  00000+0 -51372-3 0  9998
2 47291  87.8862 321.2187 0001701  81.5416 278.5905 13.12441591 46650
ONEWEB-0146             
1 47292U 20100AL  21331.37156841  .00000016  00000+0  96015-5 0  9994
2 47292  87.8849 321.2456 0002615 101.9135 258.2287 13.12442044 46567
ONEWEB-0147             
1 47293U 20100AM  21331.34155384  .00000377  00000+0  10113-2 0  9995
2 47293  87.8867 321.2479 0001983  59.0939 301.0384 13.12443358 46457
ONEWEB-0115             
1 48042U 21025A   21331.52376453 -.00000160  00000+0 -47236-3 0  9996
2 48042  87.8881 290.5616 0002273  79.6594 280.4791 13.13471056 35340
ONEWEB-0152             
1 48043U 21025B   21331.30643312 -.00000243  00000+0 -70077-3 0  9995
2 48043  87.8945 290.5880 0002075  74.0866 286.0491 13.13467757 35269
ONEWEB-0153             
1 48044U 21025C   21331.58874062  .00000189  00000+0  48274-3 0  9995
2 48044  87.8864 290.7268 0001716  79.6597 280.4726 13.13470146 35293
ONEWEB-0154             
1 48045U 21025D   21331.58650266  .00000497  00000+0  13262-2 0  9994
2 48045  87.8986 290.5491 0001723  64.4741 295.6566 13.13466402 35252
ONEWEB-0116             
1 48046U 21025E   21331.40054025  .00000019  00000+0  17062-4 0  9991
2 48046  87.8953 290.5804 0002103  88.1003 272.0367 13.13468812 35370
ONEWEB-0150             
1 48047U 21025F   21331.29746990 -.00000243  00000+0 -70109-3 0  9999
2 48047  87.8841 290.6183 0001545  76.0663 284.0638 13.13471343 35259
ONEWEB-0107             
1 48048U 21025G   21331.29970848 -.00000248  00000+0 -71392-3 0  9991
2 48048  87.8870 290.6020 0001415  63.0762 297.0511 13.13471341 35234
ONEWEB-0101             
1 48049U 21025H   21331.26385930  .00000357  00000+0  94348-3 0  9996
2 48049  87.8858 290.6710 0001794  66.8088 293.3230 13.13468168 35206
